*******************************************************************************
JPL/HORIZONS              2563 Boyarchuk (1977 FZ)         2023-Sep-04 11:18:38
Rec #:    2563 (+COV) Soln.date: 2023-Aug-22_23:06:48   # obs: 5583 (1959-2023)
 
IAU76/J2000 helio. ecliptic osc. elements (au, days, deg., period=Julian yrs):
 
  EPOCH=  2457794.5 ! 2017-Feb-10.00 (TDB)         Residual RMS= .24956
   EC= .143546060268821    QR= 2.737478651549408   TP= 2457654.3818200217
   OM= 114.6138632190424   W=  40.82847788126575   IN= 2.041258857985139
   A= 3.196294073220842    MA= 24.16731858549189   ADIST= 3.655109494892276
   PER= 5.7145             N= .172478108           ANGMOM= .030435724
   DAN= 2.82373            DDN= 3.51188            L= 155.4243497
   B= 1.3344068            MOID= 1.74805999        TP= 2016-Sep-22.8818200217
 
Asteroid physical parameters (km, seconds, rotational period in hours):
   GM= n.a.                RAD= 12.239             ROTPER= 11.04
   H= 11.81                G= .150                 B-V= n.a.
                           ALBEDO= .095            STYP= n.a.

ASTEROID comments: 
1: soln ref.= JPL#59, OCC=0
2: source=ORB
*******************************************************************************


*******************************************************************************
Ephemeris / API_USER Mon Sep  4 11:18:38 2023 Pasadena, USA      / Horizons
*******************************************************************************
Target body name: 2563 Boyarchuk (1977 FZ)        {source: JPL#59}
Center body name: Solar System Barycenter (0)     {source: DE441}
Center-site name: BODY CENTER
*******************************************************************************
Start time      : A.D. 2023-Aug-12 00:00:00.0000 TDB
Stop  time      : A.D. 2023-Aug-13 00:00:00.0000 TDB
Step-size       : 2880 minutes
*******************************************************************************
Center geodetic : 0.0, 0.0, 0.0                   {E-lon(deg),Lat(deg),Alt(km)}
Center cylindric: 0.0, 0.0, 0.0                   {E-lon(deg),Dxy(km),Dz(km)}
Center radii    : (undefined)
Small perturbers: Yes                             {source: SB441-N16}
Output units    : KM-S
Calendar mode   : Mixed Julian/Gregorian
Output type     : GEOMETRIC cartesian states
Output format   : 2 (position and velocity)
Reference frame : Ecliptic of J2000.0
*******************************************************************************
Initial IAU76/J2000 heliocentric ecliptic osculating elements (au, days, deg.):
  EPOCH=  2457794.5 ! 2017-Feb-10.00 (TDB)         Residual RMS= .24956        
   EC= .143546060268821    QR= 2.737478651549408   TP= 2457654.3818200217      
   OM= 114.6138632190424   W=  40.82847788126575   IN= 2.041258857985139       
  Equivalent ICRF heliocentric cartesian coordinates (au, au/d):
   X=-2.765098879508865E+00  Y=-3.768959495549183E-01  Z=-5.976832944455296E-02
  VX= 7.119346744897826E-04 VY=-1.006032487653086E-02 VZ=-4.210386523154520E-03
Asteroid physical parameters (km, seconds, rotational period in hours):        
   GM= n.a.                RAD= 12.239             ROTPER= 11.04               
   H= 11.81                G= .150                 B-V= n.a.                   
                           ALBEDO= .095            STYP= n.a.                  
*******************************************************************************
JDTDB
   X     Y     Z
   VX    VY    VZ
*******************************************************************************
$$SOE
2460168.500000000 = A.D. 2023-Aug-12 00:00:00.0000 TDB 
 X =-1.910741266370952E+08 Y =-4.304657898499504E+08 Z = 1.256264322198069E+07
 VX= 1.434386840019570E+01 VY=-9.006110515845004E+00 VZ=-3.317018264780867E-01
$$EOE
*******************************************************************************
 
TIME

  Barycentric Dynamical Time ("TDB" or T_eph) output was requested. This
continuous coordinate time is equivalent to the relativistic proper time
of a clock at rest in a reference frame co-moving with the solar system
barycenter but outside the system's gravity well. It is the independent
variable in the solar system relativistic equations of motion.

  TDB runs at a uniform rate of one SI second per second and is independent
of irregularities in Earth's rotation.
 
CALENDAR SYSTEM

  Mixed calendar mode was active such that calendar dates after AD 1582-Oct-15
(if any) are in the modern Gregorian system. Dates prior to 1582-Oct-5 (if any)
are in the Julian calendar system, which is automatically extended for dates
prior to its adoption on 45-Jan-1 BC.  The Julian calendar is useful for
matching historical dates. The Gregorian calendar more accurately corresponds
to the Earth's orbital motion and seasons. A "Gregorian-only" calendar mode is
available if such physical events are the primary interest.

REFERENCE FRAME AND COORDINATES

  Ecliptic at the standard reference epoch

    Reference epoch: J2000.0
    X-Y plane: adopted Earth orbital plane at the reference epoch
               Note: IAU76 obliquity of 84381.448 arcseconds wrt ICRF X-Y plane
    X-axis   : ICRF
    Z-axis   : perpendicular to the X-Y plane in the directional (+ or -) sense
               of Earth's north pole at the reference epoch.

  Symbol meaning:

    JDTDB    Julian Day Number, Barycentric Dynamical Time
      X      X-component of position vector (km)
      Y      Y-component of position vector (km)
      Z      Z-component of position vector (km)
      VX     X-component of velocity vector (km/sec)                           
      VY     Y-component of velocity vector (km/sec)                           
      VZ     Z-component of velocity vector (km/sec)                           

ABERRATIONS AND CORRECTIONS

 Geometric state vectors have NO corrections or aberrations applied.

Computations by ...

    Solar System Dynamics Group, Horizons On-Line Ephemeris System
    4800 Oak Grove Drive, Jet Propulsion Laboratory
    Pasadena, CA  91109   USA

    General site: https://ssd.jpl.nasa.gov/
    Mailing list: https://ssd.jpl.nasa.gov/email_list.html
    System news : https://ssd.jpl.nasa.gov/horizons/news.html
    User Guide  : https://ssd.jpl.nasa.gov/horizons/manual.html
    Connect     : browser        https://ssd.jpl.nasa.gov/horizons/app.html#/x
                  API            https://ssd-api.jpl.nasa.gov/doc/horizons.html
                  command-line   telnet ssd.jpl.nasa.gov 6775
                  e-mail/batch   https://ssd.jpl.nasa.gov/ftp/ssd/hrzn_batch.txt
                  scripts        https://ssd.jpl.nasa.gov/ftp/ssd/SCRIPTS
    Author      : Jon.D.Giorgini@jpl.nasa.gov
*******************************************************************************
